ONEWEB-0674             
1 55833U 23029AP  25089.49001138  .00000220  00000+0  55897-3 0  9990
2 55833  87.9090  17.9641 0002409  81.8840 278.2563 13.14505564101808
ONEWEB-0675             
1 55834U 23029AQ  25089.22409788  .00000040  00000+0  67884-4 0  9995
2 55834  87.9243  33.2295 0001579  77.2289 282.9021 13.19728267101070
ONEWEB-0720             
1 55835U 23029AR  25088.91293139  .00000119  00000+0  26479-3 0  9993
2 55835  87.9242  33.2885 0002182  69.5263 290.6103 13.19724510100244
ONEWEB-0537             
1 56046U 23043A   25088.91636299  .00000092  00000+0  20802-3 0  9996
2 56046  87.9058 317.3214 0001497  85.9908 274.1394 13.16593442100505
ONEWEB-0538             
1 56047U 23043B   25089.13802548  .00000052  00000+0  10114-3 0  9995
2 56047  87.9061 317.2993 0001498  73.9163 286.2133 13.16592892101452
ONEWEB-0546             
1 56048U 23043C   25089.12535908  .00000001  00000+0 -30197-4 0  9997
2 56048  87.9062 317.2706 0001307 107.2740 252.8534 13.16593200101444
ONEWEB-0547             
1 56049U 23043D   25089.36571558  .00000100  00000+0  21035-3 0  9994
2 56049  87.9311 332.4796 0001691  73.2868 286.8451 13.21824046100501
ONEWEB-0548             
1 56050U 23043E   25088.92270589  .00000120  00000+0  28097-3 0  9994
2 56050  87.9059 317.3519 0002215  89.2171 270.9214 13.16594068101418
